[{"OBJECT_NAME":"CS1","OBJECT_ID":"2021-088B","EPOCH":"2026-03-09T18:02:30.253920","MEAN_MOTION":15.31848439,"ECCENTRICITY":0.00141292,"INCLINATION":97.3882,"RA_OF_ASC_NODE":132.1684,"ARG_OF_PERICENTER":78.0335,"MEAN_ANOMALY":282.249,"EPHEMERIS_TYPE":0,"CLASSIFICATION_TYPE":"U","NORAD_CAT_ID":49261,"ELEMENT_SET_NO":999,"REV_AT_EPOCH":24518,"BSTAR":0.00051175576,"MEAN_MOTION_DOT":0.00015722,"MEAN_MOTION_DDOT":0},{"OBJECT_NAME":"STARLINK-31356","OBJECT_ID":"2024-031D","EPOCH":"2026-03-09T22:57:02.865888","MEAN_MOTION":15.30192166,"ECCENTRICITY":0.00012234,"INCLINATION":53.1588,"RA_OF_ASC_NODE":267.6032,"ARG_OF_PERICENTER":80.6378,"MEAN_ANOMALY":279.4761,"EPHEMERIS_TYPE":0,"CLASSIFICATION_TYPE":"U","NORAD_CAT_ID":58968,"ELEMENT_SET_NO":999,"REV_AT_EPOCH":11696,"BSTAR":1.3017387e-5,"MEAN_MOTION_DOT":2.6e-7,"MEAN_MOTION_DDOT":0}]
